JILIN-1 GAOFEN 2A       
1 44777U 19075A   24254.92105564  .00021467  00000+0  10426-2 0  9994
2 44777  97.5702 319.9772 0010211 192.2664 167.8323 15.18430470266427
NINGXIA-1 1             
1 44779U 19076A   24254.90442069  .00000265  00000+0  25725-3 0  9991
2 44779  45.0060 178.6682 0011280 344.2384  15.8098 14.01907323247448
NINGXIA-1 5             
1 44783U 19076E   24254.91743060  .00000276  00000+0  26447-3 0  9996
2 44783  45.0058 177.9626 0012153 333.9567  26.0655 14.01896629247368
KL-ALPHA A              
1 44785U 19077A   24254.92982410  .00000138  00000+0  17970-3 0  9992
2 44785  88.9055 294.0285 0011044 177.0187 183.1035 13.55939815238425
CARTOSAT-3              
1 44804U 19081A   24254.86808274  .00012688  00000+0  60174-3 0  9994
2 44804  97.5235 312.3661 0012505 236.2229 123.7815 15.19353861265646
JILIN-1 GAOFEN 2B       
1 44836U 19086A   24254.90086126  .00021062  00000+0  10217-2 0  9991
2 44836  97.5688 320.4134 0011446 149.1215 211.0694 15.18465593262815
TYVAK-0092              
1 44852U 19089A   24254.87841688  .00492454  00000+0  38078-2 0  9992
2 44852  36.9315 165.7078 0017968 259.9320  99.9416 15.69306660262063
TYVAK-0129              
1 44853U 19089B   24254.77466357  .00712328  00000+0  36747-2 0  9994
2 44853  36.9469 158.2497 0018352 262.8775  96.9905 15.78086756262242
DUCHIFAT-3              
1 44854U 19089C   24254.68674428  .00039041  00000+0  17296-2 0  9997
2 44854  36.9544 248.4605 0005186 126.7094 233.4131 15.20726001261275
ANGELS                  
1 44876U 19092D   24254.61047187  .00018356  00000+0  65041-3 0  9992
2 44876  97.4739  83.3950 0009840  25.5702 334.6022 15.29115402262404
TIANQIN 1 (CAS-6)       
1 44879U 19093A   24254.88859918  .00010864  00000+0  11743-2 0  9993
2 44879  97.8305 333.2781 0013319  37.1621 323.0515 14.88419581255932
ETRSS-1                 
1 44880U 19093B   24254.85643415  .00009944  00000+0  10714-2 0  9999
2 44880  97.8316 333.4059 0013718  38.3277 321.8912 14.88571611255928
TIANYAN 01              
1 44881U 19093C   24254.94631821  .00004234  00000+0  51152-3 0  9997
2 44881  97.8220 330.0720 0015103  46.4958 313.7509 14.84190154255766
TIANYAN 02              
1 44882U 19093D   24254.89770886  .00016994  00000+0  16770-2 0  9999
2 44882  97.8396 336.6079 0013262  31.1674 329.0329 14.91980154256069
CBERS 4A                
1 44883U 19093E   24254.93562847  .00005072  00000+0  65177-3 0  9992
2 44883  97.8239 329.0287 0001388 106.8057 253.3308 14.81594376255683
WEILAI 1R               
1 44884U 19093F   24254.88529815  .00013154  00000+0  13426-2 0  9994
2 44884  97.8312 335.2409 0011764  36.6556 323.5464 14.90701028256064
FLORIPASAT-1            
1 44885U 19093G   24254.91775541  .00016393  00000+0  16182-2 0  9998
2 44885  97.8361 336.9089 0012379  36.6851 323.5213 14.91983932256140
SHUNTIAN                
1 44886U 19093H   24254.90341889  .00010071  00000+0  10778-2 0  9994
2 44886  97.8408 336.5027 0014091  46.7298 313.5092 14.88838741256070
2019-093L               
1 44889U 19093L   24254.91903060  .00009944  00000+0  10954-2 0  9996
2 44889  97.8175 330.1995 0014102  32.4825 327.7256 14.87665154255757
ELEKTRO-L 3             
1 44903U 19095A   24254.85354745 -.00000092  00000+0  00000+0 0  9992
2 44903   0.0615  80.3195 0001009 125.5716 167.7459  1.00273216 17231
GONETS-M 14             
1 44905U 19096A   24254.90987941  .00000038  00000+0  20149-3 0  9990
2 44905  82.5217 124.0744 0014048 116.3127 243.9398 12.42876764213640
GONETS-M 15             
1 44906U 19096B   24254.93566271  .00000048  00000+0  27721-3 0  9997
2 44906  82.5238 124.4098 0015649 138.3931 221.8342 12.42879383213616
GONETS-M 16             
1 44907U 19096C   24254.88094062  .00000048  00000+0  27590-3 0  9990
2 44907  82.5182 123.6838 0011052 179.1229 180.9872 12.42880240213599
RS-44 & BREEZE-KM R/B   
1 44909U 19096E   24254.79795638  .00000045  00000+0  13911-3 0  9998
2 44909  82.5208  47.8712 0217041 210.8254 147.9954 12.79733660219925
JILIN-1 KUANFU 01       
1 45016U 20003A   24254.88462554  .00015231  00000+0  83540-3 0  9994
2 45016  97.5733 327.0263 0013798 160.2245 199.9524 15.14180182258019
XINGYUN-2 01            
1 45602U 20028A   24254.91880616  .00007658  00000+0  52269-3 0  9997
2 45602  97.4574 252.7573 0007894 253.3593 106.6769 15.06445096237641
XINGYUN-2 02            
1 45603U 20028B   24254.97756540  .00008352  00000+0  56833-3 0  9995
2 45603  97.5164 263.1640 0011055 329.2406  30.8172 15.06508778237653
HAIYANG-1D              
1 45721U 20036A   24254.95051061  .00001043  00000+0  38895-3 0  9997
2 45721  98.5939 194.9141 0001993 167.0052 193.1184 14.34067376222639
M2 PATHFINDER           
1 45727U 20037E   24254.44228827  .00010947  00000+0  92543-3 0  9997
2 45727  97.7823  70.5052 0010867 190.1674 169.9330 14.98197724228704
GAOFEN DUOMO (GFDM)     
1 45856U 20042A   24254.93602310  .00004146  00000+0  59720-3 0  9997
2 45856  97.8608 323.9226 0013162  12.1790 347.9736 14.76804458225924
ZINYUAN-3               
1 45939U 20051A   24254.94303447  .00017208  00000+0  77600-3 0  9999
2 45939  97.3585 329.3580 0013466  68.2158 292.0509 15.21004076229397
TIANTUO 5               
1 46234U 20058C   24254.92443016  .00055018  00000+0  11127-2 0  9992
2 46234  97.2897 313.0401 0010721  72.6497 287.5924 15.46219142226003
TYVAK-0172              
1 46267U 20059C   24254.53273084  .00045821  00000+0  28466-2 0  9997
2 46267  97.8149  98.4620 0002867  54.0983 306.0511 15.09502395219609
ION-MK01                
1 46274U 20061C   24254.72547064  .00031073  00000+0  95052-3 0  9991
2 46274  97.2901 317.3224 0005365 134.5570 225.6112 15.33777100223076
UPMSAT-2                
1 46276U 20061E   24254.77270939  .00038737  00000+0  10180-2 0  9994
2 46276  97.2882 320.2179 0002018 151.9787 208.1568 15.38495614223313
NEMO-HD                 
1 46277U 20061F   24254.90369204  .00017118  00000+0  62310-3 0  9997
2 46277  97.2884 315.6818 0002054 148.2227 211.9137 15.28285937223028
TRISAT                  
1 46280U 20061J   24254.69598878  .00548809  00000+0  25699-2 0  9992
2 46280  97.3147 328.2462 0007007 250.5157 109.5355 15.81799303223178
DIDO 3                  
1 46284U 20061N   24254.65191049  .00067099  00000+0  16301-2 0  9998
2 46284  97.3382 320.3954 0001857 230.8781 129.2301 15.40760380222563
FLOCK 4V-14             
1 46286U 20061Q   24254.62328181  .00104473  00000+0  15432-2 0  9998
2 46286  97.3430 329.8765 0004288 252.0443 108.0344 15.54970531223193
AMICALSAT               
1 46287U 20061R   24254.16384522  .00106594  00000+0  20930-2 0  9994
2 46287  97.3383 321.9008 0002027 235.3675 124.7384 15.46924573222659
3CAT-5A                 
1 46292U 20061W   24254.44828479  .00023167  00000+0  95629-3 0  9997
2 46292  97.3394 313.4351 0001532 256.2989 103.8078 15.24033063222103
3CAT-5B                 
1 46293U 20061X   24254.10183614  .00023053  00000+0  94867-3 0  9993
2 46293  97.3401 313.4274 0001519 252.0470 108.0602 15.24138032222046
OSM-1 CICERO            
1 46294U 20061Y   24254.92411812  .00043972  00000+0  12302-2 0  9993
2 46294  97.3415 320.3485 0002366 211.3402 148.7702 15.36525085222590
FLOCK 4V-13             
1 46297U 20061AB  24254.62254092  .00105176  00000+0  16509-2 0  9996
2 46297  97.3423 329.6120 0002219 222.3200 137.7882 15.53297000223113
KEPLER-2 (TARS)         
1 46319U 20061AZ  24254.65618922  .00149673  00000+0  23410-2 0  9999
2 46319  97.3376 326.0703 0002090 233.1847 126.9215 15.53232746222965
NAPA-1                  
1 46320U 20061BA  24254.88693246  .00029817  00000+0  11761-2 0  9991
2 46320  97.3452 316.6509 0002385 160.1046 200.0286 15.25506360222358
JILIN-1 GAOFEN 3B       
1 46454U 20065A   24254.92399991  .00036272  00000+0  12275-2 0  9992
2 46454  97.3311 298.5110 0008008 266.3968  93.6358 15.30483571220523
JILIN-1 GAOFEN 3E       
1 46457U 20065D   24254.89683476  .00034695  00000+0  11864-2 0  9995
2 46457  97.3322 298.5448 0006753 291.1240  68.9278 15.30164433220514
JILIN-1 GAOFEN 3F       
1 46458U 20065E   24254.93485725  .00035402  00000+0  12095-2 0  9992
2 46458  97.3255 297.3308 0007074 277.2456  82.7980 15.30187517220526
JILIN-1 GAOFEN 3G       
1 46459U 20065F   24254.90455252  .00035091  00000+0  11929-2 0  9991
2 46459  97.3370 299.7242 0007735 284.3947  75.6435 15.30346500220521
JILIN-1 GAOFEN 3H       
1 46460U 20065G   24254.90856675  .00034281  00000+0  11825-2 0  9992
2 46460  97.3269 297.4648 0007179 281.5842  78.4592 15.29880846220518
JILIN-1 GAOFEN 3J       
1 46462U 20065J   24254.87453604  .00037114  00000+0  12568-2 0  9998
2 46462  97.3306 298.5238 0006966 277.4318  82.6132 15.30464965220524
HAIYANG-2C              
1 46469U 20066A   24254.87482539  .00000164  00000+0  22244-3 0  9993
2 46469  65.9984  19.4780 0007086 235.9409 124.0987 13.83374986200661
HJ-2A                   
1 46478U 20067A   24254.90019428  .00003941  00000+0  57331-3 0  9992
2 46478  97.9360 335.4506 0003424 161.1432 198.9905 14.76466728213189
HJ-2B                   
1 46479U 20067B   24254.86803198  .00003706  00000+0  53935-3 0  9998
2 46479  97.9402 336.0255 0001035  84.1880 275.9448 14.76476842213188
GONETS-M 17             
1 46486U 20068A   24254.90594035  .00000053  00000+0  30873-3 0  9997
2 46486  82.5005  28.2810 0022524   2.6384 357.4811 12.42876093179120
GONETS-M 18             
1 46487U 20068B   24254.87105924  .00000073  00000+0  45330-3 0  9995
2 46487  82.4960  27.6663 0019665 359.6410   0.4653 12.42865763179105
GONETS-M 19             
1 46488U 20068C   24254.84651827  .00000060  00000+0  35853-3 0  9996
2 46488  82.4984  27.9991 0013704  16.1447 344.0067 12.42890558179209
MEZNSAT                 
1 46489U 20068D   24254.83789460  .00059843  00000+0  18535-2 0  9991
2 46489  97.8165 225.0517 0009539  21.3205 338.8432 15.33194118217861
